NORAD_CAT_ID,OBJECT_NAME,OBJECT_TYPE,EPOCH,MEAN_MOTION,ECCENTRICITY,INCLINATION,RA_OF_ASC_NODE,ARG_OF_PERICENTER,MEAN_ANOMALY,BSTAR,MEAN_MOTION_DOT,MEAN_MOTION_DDOT,TLE_LINE0,TLE_LINE1,TLE_LINE2,SEMIMAJOR_AXIS,PERIOD,APOGEE,PERIGEE,DECAYED
53893.0,STARLINK-5052,PAYLOAD,2023-01-31 07:28:45,15.08842021,0.0001289,53.2195,12.0037,92.7015,267.4125,0.00011848,1.598e-05,0.0,0 STARLINK-5052,1 53893U 22119H   23031.31163909  .00001598  00000-0  11848-3 0  9992,2 53893  53.2195  12.0037 0001289  92.7015 267.4125 15.08842021 20169,6917.874,95.437,540.631,538.847,0.0
53893.0,STARLINK-5052,PAYLOAD,2023-01-31 21:47:13,15.08840191,0.0001299,53.2186,9.3273,91.0795,269.0346,0.00017558,2.508e-05,0.0,0 STARLINK-5052,1 53893U 22119H   23031.90779900  .00002508  00000-0  17558-3 0  9997,2 53893  53.2186   9.3273 0001299  91.0795 269.0346 15.08840191 20673,6917.88,95.438,540.643,538.846,0.0
53893.0,STARLINK-5052,PAYLOAD,2023-02-01 07:19:31,15.08856034,0.0001384,53.2191,7.5434,97.3597,262.7552,0.00037786,5.733e-05,0.0,0 STARLINK-5052,1 53893U 22119H   23032.30523107  .00005733  00000-0  37786-3 0  9996,2 53893  53.2191   7.5434 0001384  97.3597 262.7552 15.08856034 20315,6917.831,95.437,540.654,538.739,0.0
53893.0,STARLINK-5052,PAYLOAD,2023-02-02 02:24:10,15.08837023,0.000152,53.2186,3.9748,107.8364,252.2794,-8.1196e-05,-1.58e-05,0.0,0 STARLINK-5052,1 53893U 22119H   23033.10011809 -.00001580  00000-0 -81196-4 0  9999,2 53893  53.2186   3.9748 0001520 107.8364 252.2794 15.08837023 20430,6917.889,95.438,540.806,538.703,0.0
53893.0,STARLINK-5052,PAYLOAD,2023-02-02 07:10:19,15.08843063,0.0001249,53.2184,3.083,91.1687,268.9448,0.00010163,1.33e-05,0.0,0 STARLINK-5052,1 53893U 22119H   23033.29883786  .00001330  00000-0  10163-3 0  9996,2 53893  53.2184   3.0830 0001249  91.1687 268.9448 15.08843063 20882,6917.871,95.437,540.6,538.872,0.0
53893.0,STARLINK-5052,PAYLOAD,2023-02-03 03:50:20,15.08849272,0.000125,53.2185,359.2171,94.3487,265.7648,0.00036417,5.514e-05,0.0,0 STARLINK-5052,1 53893U 22119H   23034.15995677  .00005514  00000-0  36417-3 0  9993,2 53893  53.2185 359.2171 0001250  94.3487 265.7648 15.08849272 20595,6917.852,95.437,540.582,538.852,0.0
53893.0,STARLINK-5052,PAYLOAD,2023-02-04 05:16:30,15.08849017,0.0001306,53.2188,354.4598,78.9133,281.2006,0.00039233,5.963e-05,0.0,0 STARLINK-5052,1 53893U 22119H   23035.21980044  .00005963  00000-0  39233-3 0  9990,2 53893  53.2188 354.4598 0001306  78.9133 281.2006 15.08849017 20752,6917.853,95.437,540.621,538.814,0.0
53893.0,STARLINK-5052,PAYLOAD,2023-02-04 21:10:22,15.08839771,0.0001446,53.2194,351.488,81.1066,279.009,0.00015952,2.252e-05,0.0,0 STARLINK-5052,1 53893U 22119H   23035.88220350  .00002252  00000-0  15952-3 0  9990,2 53893  53.2194 351.4880 0001446  81.1066 279.0090 15.08839771 21278,6917.881,95.438,540.746,538.746,0.0
53893.0,STARLINK-5052,PAYLOAD,2023-02-05 03:31:54,15.08844244,0.000123,53.2189,350.2974,84.3477,275.7655,0.00014038,1.947e-05,0.0,0 STARLINK-5052,1 53893U 22119H   23036.14716065  .00001947  00000-0  14038-3 0  9997,2 53893  53.2189 350.2974 0001230  84.3477 275.7655 15.08844244 20893,6917.867,95.437,540.583,538.882,0.0
53893.0,STARLINK-5052,PAYLOAD,2023-02-05 06:42:40,15.08849282,0.000124,53.219,349.7025,86.1789,273.9345,0.0001478,2.066e-05,0.0,0 STARLINK-5052,1 53893U 22119H   23036.27963733  .00002066  00000-0  14780-3 0  9994,2 53893  53.2190 349.7025 0001240  86.1789 273.9345 15.08849282 21335,6917.852,95.437,540.575,538.859,0.0
53893.0,STARLINK-5052,PAYLOAD,2023-02-05 19:25:46,15.08836267,0.0001065,53.2193,347.3236,98.1548,261.9565,-9.417e-06,-4.38e-06,0.0,0 STARLINK-5052,1 53893U 22119H   23036.80956489 -.00000438  00000-0 -94170-5 0  9999,2 53893  53.2193 347.3236 0001065  98.1548 261.9565 15.08836267 20998,6917.892,95.438,540.494,539.02,0.0
53893.0,STARLINK-5052,PAYLOAD,2023-02-05 21:01:09,15.08836429,0.0001226,53.2191,347.0266,90.6722,269.4411,3.238e-06,-2.36e-06,0.0,0 STARLINK-5052,1 53893U 22119H   23036.87580540 -.00000236  00000-0  32380-5 0  9997,2 53893  53.2191 347.0266 0001226  90.6722 269.4411 15.08836429 21428,6917.891,95.438,540.604,538.908,0.0
53893.0,STARLINK-5052,PAYLOAD,2023-02-06 04:58:04,15.08849283,0.0001186,53.219,345.5402,86.4995,273.6133,0.00020965,3.051e-05,0.0,0 STARLINK-5052,1 53893U 22119H   23037.20699998  .00003051  00000-0  20965-3 0  9994,2 53893  53.2190 345.5402 0001186  86.4995 273.6133 15.08849283 21051,6917.852,95.437,540.537,538.897,0.0
53893.0,STARLINK-5052,PAYLOAD,2023-02-06 20:51:56,15.08842781,0.0001184,53.219,342.5662,89.3544,270.7584,0.00011565,1.553e-05,0.0,0 STARLINK-5052,1 53893U 22119H   23037.86940263  .00001553  00000-0  11565-3 0  9991,2 53893  53.2190 342.5662 0001184  89.3544 270.7584 15.08842781 21577,6917.872,95.437,540.556,538.918,0.0
53893.0,STARLINK-5052,PAYLOAD,2023-02-07 03:13:28,15.08857525,0.0001116,53.2192,341.3776,78.4196,281.6922,0.00033962,5.124e-05,0.0,0 STARLINK-5052,1 53893U 22119H   23038.13435528  .00005124  00000-0  33962-3 0  9998,2 53893  53.2192 341.3776 0001116  78.4196 281.6922 15.08857525 21613,6917.827,95.436,540.464,538.92,0.0
53893.0,STARLINK-5052,PAYLOAD,2023-02-07 17:31:56,15.08840568,0.000147,53.219,338.7012,126.7992,233.3136,-3.2556e-05,-8.06e-06,0.0,0 STARLINK-5052,1 53893U 22119H   23038.73051840 -.00000806  00000-0 -32556-4 0  9998,2 53893  53.2190 338.7012 0001470 126.7992 233.3136 15.08840568 21281,6917.879,95.438,540.761,538.727,0.0
53893.0,STARLINK-5052,PAYLOAD,2023-02-07 20:42:43,15.08846367,0.0001049,53.2187,338.1068,111.7522,248.3582,0.00012409,1.688e-05,0.0,0 STARLINK-5052,1 53893U 22119H   23038.86299883  .00001688  00000-0  12409-3 0  9994,2 53893  53.2187 338.1068 0001049 111.7522 248.3582 15.08846367 21720,6917.861,95.437,540.452,539.0,0.0
53893.0,STARLINK-5052,PAYLOAD,2023-02-07 22:18:06,15.08848772,0.0001079,53.2182,337.8085,114.6964,245.4141,0.00016,2.26e-05,0.0,0 STARLINK-5052,1 53893U 22119H   23038.92923706  .00002260  00000-0  16000-3 0  9997,2 53893  53.2182 337.8085 0001079 114.6964 245.4141 15.08848772 21311,6917.854,95.437,540.465,538.972,0.0
53893.0,STARLINK-5052,PAYLOAD,2023-02-09 02:55:03,15.08837395,0.0001291,53.2168,332.4629,143.6392,216.4688,0.00047523,7.283e-05,0.0,0 STARLINK-5052,1 53893U 22119H   23040.12156362  .00007283  00000-0  47523-3 0  9992,2 53893  53.2168 332.4629 0001291 143.6392 216.4688 15.08837395 21495,6917.888,95.438,540.646,538.86,0.0
53893.0,STARLINK-5052,PAYLOAD,2023-02-09 04:30:26,15.08839229,0.00013,53.2167,332.1655,144.9197,215.1881,0.00054345,8.371e-05,0.0,0 STARLINK-5052,1 53893U 22119H   23040.18780340  .00008371  00000-0  54345-3 0  9996,2 53893  53.2167 332.1655 0001300 144.9197 215.1881 15.08839229 21925,6917.883,95.438,540.647,538.848,0.0
53893.0,STARLINK-5052,PAYLOAD,2023-02-10 01:10:27,15.08848389,0.0001097,53.2169,328.2933,93.4956,266.6161,0.00061395,9.499e-05,0.0,0 STARLINK-5052,1 53893U 22119H   23041.04892601  .00009499  00000-0  61395-3 0  9991,2 53893  53.2169 328.2933 0001097  93.4956 266.6161 15.08848389 22050,6917.855,95.437,540.479,538.961,0.0
53893.0,STARLINK-5052,PAYLOAD,2023-02-10 12:18:08,15.08856106,0.0001163,53.2164,326.2176,71.0392,289.0726,0.00062106,9.614e-05,0.0,0 STARLINK-5052,1 53893U 22119H   23041.51260329  .00009614  00000-0  62106-3 0  9999,2 53893  53.2164 326.2176 0001163  71.0392 289.0726 15.08856106 21705,6917.831,95.437,540.501,538.892,0.0
53893.0,STARLINK-5052,PAYLOAD,2023-02-11 02:36:36,15.08858374,0.000107,53.2172,323.5355,84.5764,275.535,0.00049657,7.628e-05,0.0,0 STARLINK-5052,1 53893U 22119H   23042.10875978  .00007628  00000-0  49657-3 0  9996,2 53893  53.2172 323.5355 0001070  84.5764 275.5350 15.08858374 21793,6917.824,95.436,540.429,538.949,0.0
53893.0,STARLINK-5052,PAYLOAD,2023-02-11 21:41:14,15.08844197,7.6e-05,53.2182,319.9664,104.6636,255.444,6.2522e-05,7.08e-06,0.0,0 STARLINK-5052,1 53893U 22119H   23042.90363960  .00000708  00000-0  62522-4 0  9996,2 53893  53.2182 319.9664 0000760 104.6636 255.4440 15.08844197 21912,6917.868,95.437,540.258,539.207,0.0
53893.0,STARLINK-5052,PAYLOAD,2023-02-12 04:02:46,15.08862261,0.0001192,53.2174,318.7763,107.188,252.9243,0.00058183,8.99e-05,0.0,0 STARLINK-5052,1 53893U 22119H   23043.16859699  .00008990  00000-0  58183-3 0  9992,2 53893  53.2174 318.7763 0001192 107.1880 252.9243 15.08862261 21958,6917.812,95.436,540.502,538.853,0.0
53893.0,STARLINK-5052,PAYLOAD,2023-02-13 00:42:49,15.0882142,0.0001095,53.2162,314.9119,93.5117,266.6,9.4576e-05,1.217e-05,0.0,0 STARLINK-5052,1 53893U 22119H   23044.02973982  .00001217  00000-0  94576-4 0  9992,2 53893  53.2162 314.9119 0001095  93.5117 266.6000 15.08821420 22081,6917.937,95.439,540.56,539.045,0.0
53893.0,STARLINK-5052,PAYLOAD,2023-02-13 13:25:55,15.0882686,9.37e-05,53.2166,312.5342,85.4997,274.6102,0.00045785,7.004e-05,0.0,0 STARLINK-5052,1 53893U 22119H   23044.55966699  .00007004  00000-0  45785-3 0  9994,2 53893  53.2166 312.5342 0000937  85.4997 274.6102 15.08826860 22587,6917.921,95.438,540.434,539.137,0.0
53893.0,STARLINK-5052,PAYLOAD,2023-02-14 00:33:36,15.0887711,8.74e-05,53.2169,310.4519,80.3007,279.8083,0.0025829,0.00041101,0.0,0 STARLINK-5052,1 53893U 22119H   23045.02334266  .00041101  00000-0  25829-2 0  9998,2 53893  53.2169 310.4519 0000874  80.3007 279.8083 15.08877110 22230,6917.767,95.435,540.237,539.027,0.0
53893.0,STARLINK-5052,PAYLOAD,2023-02-14 10:05:54,15.08878012,5.21e-05,53.2181,308.6682,81.9221,278.1831,0.0013735,0.00021662,0.0,0 STARLINK-5052,1 53893U 22119H   23045.42077432  .00021662  00000-0  13735-2 0  9994,2 53893  53.2181 308.6682 0000521  81.9221 278.1831 15.08878012 22299,6917.764,95.435,539.99,539.269,0.0
53893.0,STARLINK-5052,PAYLOAD,2023-02-14 18:02:51,15.08844422,0.0001246,53.2167,307.1809,88.6088,271.5047,0.00056963,8.79e-05,0.0,0 STARLINK-5052,1 53893U 22119H   23045.75197986  .00008790  00000-0  56963-3 0  9995,2 53893  53.2167 307.1809 0001246  88.6088 271.5047 15.08844422 22348,6917.867,95.437,540.594,538.87,0.0
